[{"OBJECT_NAME":"STARLINK-30446","OBJECT_ID":"2023-144J","EPOCH":"2026-03-09T13:29:00.069504","MEAN_MOTION":15.27587322,"ECCENTRICITY":0.00017956,"INCLINATION":43.0018,"RA_OF_ASC_NODE":271.7939,"ARG_OF_PERICENTER":273.4287,"MEAN_ANOMALY":86.636,"EPHEMERIS_TYPE":0,"CLASSIFICATION_TYPE":"U","NORAD_CAT_ID":57872,"ELEMENT_SET_NO":999,"REV_AT_EPOCH":13751,"BSTAR":-1.9035768e-5,"MEAN_MOTION_DOT":-7.86e-6,"MEAN_MOTION_DDOT":0},{"OBJECT_NAME":"FLOCK 4G-26","OBJECT_ID":"2025-009AA","EPOCH":"2026-03-09T19:19:02.910720","MEAN_MOTION":15.27281631,"ECCENTRICITY":0.0001988,"INCLINATION":97.4054,"RA_OF_ASC_NODE":151.3913,"ARG_OF_PERICENTER":299.1273,"MEAN_ANOMALY":60.9767,"EPHEMERIS_TYPE":0,"CLASSIFICATION_TYPE":"U","NORAD_CAT_ID":62633,"ELEMENT_SET_NO":999,"REV_AT_EPOCH":6373,"BSTAR":0.00042468806,"MEAN_MOTION_DOT":0.00011283,"MEAN_MOTION_DDOT":0}]
